start=new Date('2023-01-11T00:00:00.000Z').valueOf();
sats=[{"APOAPSIS":"548.198","OBJECT_NAME":"STARLINK-1321","SEMIMAJOR_AXIS":"6925.351","OBJECT_ID":"2020-025AU","LAUNCH_DATE":"2020-04-22","CLASSIFICATION_TYPE":"U","COUNTRY_CODE":"US","ARG_OF_PERICENTER":"76.2760","TLE_LINE1":"1 45573U 20025AU  23010.83547442  .00000832  00000-0  74719-4 0  9991","TIME_SYSTEM":"UTC","ELEMENT_SET_NO":"999","OBJECT_TYPE":"PAYLOAD","PERIAPSIS":"546.235","FILE":"3739267","PERIOD":"95.592","GP_ID":"222718361","RA_OF_ASC_NODE":"216.4750","ECCENTRICITY":"0.00014170","INCLINATION":"53.0513","MEAN_MOTION_DDOT":"0.0000000000000","CENTER_NAME":"EARTH","BSTAR":"0.00007471900000","DECAY_DATE":null,"REF_FRAME":"TEME","TLE_LINE2":"2 45573  53.0513 216.4750 0001417  76.2760 283.8387 15.06399134151297","RCS_SIZE":"LARGE","EPOCH":"2023-01-10T20:03:04.989888","MEAN_ANOMALY":"283.8387","REV_AT_EPOCH":"15129","MEAN_ELEMENT_THEORY":"SGP4","NORAD_CAT_ID":"45573","SITE":"AFETR","EPHEMERIS_TYPE":"0","MEAN_MOTION_DOT":"0.00000832","MEAN_MOTION":"15.06399134"},{"BSTAR":"0.00010403000000","DECAY_DATE":null,"MEAN_MOTION_DDOT":"0.0000000000000","CENTER_NAME":"EARTH","RA_OF_ASC_NODE":"220.2237","ECCENTRICITY":"0.00013940","INCLINATION":"53.0525","SITE":"AFETR","MEAN_MOTION_DOT":"0.00001269","EPHEMERIS_TYPE":"0","MEAN_MOTION":"15.06405941","REV_AT_EPOCH":"15148","NORAD_CAT_ID":"45574","MEAN_ELEMENT_THEORY":"SGP4","TLE_LINE2":"2 45574  53.0525 220.2237 0001394  87.0387 273.0762 15.06405941151486","REF_FRAME":"TEME","EPOCH":"2023-01-09T23:58:14.203200","RCS_SIZE":"LARGE","MEAN_ANOMALY":"273.0762","ARG_OF_PERICENTER":"87.0387","TLE_LINE1":"1 45574U 20025AV  23009.99877550  .00001269  00000-0  10403-3 0  9997","LAUNCH_DATE":"2020-04-22","COUNTRY_CODE":"US","CLASSIFICATION_TYPE":"U","OBJECT_NAME":"STARLINK-1324","APOAPSIS":"548.161","OBJECT_ID":"2020-025AV","SEMIMAJOR_AXIS":"6925.330","PERIOD":"95.592","GP_ID":"222659629","FILE":"3739038","PERIAPSIS":"546.230","ELEMENT_SET_NO":"999","OBJECT_TYPE":"PAYLOAD","TIME_SYSTEM":"UTC"},{"APOAPSIS":"486.884","OBJECT_NAME":"STARLINK-1326","SEMIMAJOR_AXIS":"6862.226","OBJECT_ID":"2020-025AW","LAUNCH_DATE":"2020-04-22","CLASSIFICATION_TYPE":"U","COUNTRY_CODE":"US","ARG_OF_PERICENTER":"161.3913","TLE_LINE1":"1 45575U 20025AW  23010.88196059  .00093540  00000-0  34275-2 0  9991","TIME_SYSTEM":"UTC","ELEMENT_SET_NO":"999","OBJECT_TYPE":"PAYLOAD","FILE":"3739267","PERIAPSIS":"481.298","PERIOD":"94.288","GP_ID":"222717367","RA_OF_ASC_NODE":"184.4667","ECCENTRICITY":"0.00040700","INCLINATION":"53.0044","MEAN_MOTION_DDOT":"0.0000000000000","CENTER_NAME":"EARTH","BSTAR":"0.00342750000000","DECAY_DATE":null,"TLE_LINE2":"2 45575  53.0044 184.4667 0004070 161.3913 198.7234 15.27232846152018","REF_FRAME":"TEME","EPOCH":"2023-01-10T21:10:01.394976","RCS_SIZE":"LARGE","MEAN_ANOMALY":"198.7234","REV_AT_EPOCH":"15201","NORAD_CAT_ID":"45575","MEAN_ELEMENT_THEORY":"SGP4","SITE":"AFETR","EPHEMERIS_TYPE":"0","MEAN_MOTION_DOT":"0.00093540","MEAN_MOTION":"15.27232846"},{"TLE_LINE1":"1 45576U 20025AX  23010.82073292  .00001497  00000-0  11935-3 0  9998","ARG_OF_PERICENTER":"67.8847","COUNTRY_CODE":"US","CLASSIFICATION_TYPE":"U","LAUNCH_DATE":"2020-04-22","SEMIMAJOR_AXIS":"6925.342","OBJECT_ID":"2020-025AX","APOAPSIS":"548.280","OBJECT_NAME":"STARLINK-1328","GP_ID":"222718614","PERIOD":"95.592","FILE":"3739267","PERIAPSIS":"546.135","OBJECT_TYPE":"PAYLOAD","ELEMENT_SET_NO":"999","TIME_SYSTEM":"UTC","DECAY_DATE":null,"BSTAR":"0.00011935000000","CENTER_NAME":"EARTH","MEAN_MOTION_DDOT":"0.0000000000000","INCLINATION":"53.0519","ECCENTRICITY":"0.00015490","RA_OF_ASC_NODE":"216.5509","MEAN_MOTION":"15.06402062","EPHEMERIS_TYPE":"0","MEAN_MOTION_DOT":"0.00001497","SITE":"AFETR","NORAD_CAT_ID":"45576","MEAN_ELEMENT_THEORY":"SGP4","REV_AT_EPOCH":"15160","MEAN_ANOMALY":"292.2307","EPOCH":"2023-01-10T19:41:51.324288","RCS_SIZE":"LARGE","TLE_LINE2":"2 45576  53.0519 216.5509 0001549  67.8847 292.2307 15.06402062151603","REF_FRAME":"TEME"},{"LAUNCH_DATE":"2020-04-22","CLASSIFICATION_TYPE":"U","COUNTRY_CODE":"US","ARG_OF_PERICENTER":"132.4970","TLE_LINE1":"1 45577U 20025AY  23010.27945021  .00033949  00000-0  19026-2 0  9991","APOAPSIS":"528.676","OBJECT_NAME":"STARLINK-1330","SEMIMAJOR_AXIS":"6904.853","OBJECT_ID":"2020-025AY","FILE":"3739038","PERIAPSIS":"524.761","GP_ID":"222659880","PERIOD":"95.168","TIME_SYSTEM":"UTC","OBJECT_TYPE":"PAYLOAD","ELEMENT_SET_NO":"999","DECAY_DATE":null,"BSTAR":"0.00190260000000","ECCENTRICITY":"0.00028350","INCLINATION":"53.0499","RA_OF_ASC_NODE":"215.8398","MEAN_MOTION_DDOT":"0.0000000000000","CENTER_NAME":"EARTH","NORAD_CAT_ID":"45577","MEAN_ELEMENT_THEORY":"SGP4","REV_AT_EPOCH":"15155","MEAN_MOTION":"15.13111995","SITE":"AFETR","MEAN_MOTION_DOT":"0.00033949","EPHEMERIS_TYPE":"0","RCS_SIZE":"LARGE","EPOCH":"2023-01-10T06:42:24.498144","MEAN_ANOMALY":"227.6262","REF_FRAME":"TEME","TLE_LINE2":"2 45577  53.0499 215.8398 0002835 132.4970 227.6262 15.13111995151550"},{"RA_OF_ASC_NODE":"217.1760","INCLINATION":"53.0536","ECCENTRICITY":"0.00013940","CENTER_NAME":"EARTH","MEAN_MOTION_DDOT":"0.0000000000000","BSTAR":"0.00001600100000","DECAY_DATE":null,"TLE_LINE2":"2 45578  53.0536 217.1760 0001394  70.5269 289.5870 15.06397371151584","REF_FRAME":"TEME","MEAN_ANOMALY":"289.5870","RCS_SIZE":"LARGE","EPOCH":"2023-01-10T16:20:09.565728","REV_AT_EPOCH":"15158","NORAD_CAT_ID":"45578","MEAN_ELEMENT_THEORY":"SGP4","MEAN_MOTION_DOT":"-0.00000043","EPHEMERIS_TYPE":"0","SITE":"AFETR","MEAN_MOTION":"15.06397371","SEMIMAJOR_AXIS":"6925.357","OBJECT_ID":"2020-025AZ","OBJECT_NAME":"STARLINK-1331","APOAPSIS":"548.187","COUNTRY_CODE":"US","CLASSIFICATION_TYPE":"U","LAUNCH_DATE":"2020-04-22","TLE_LINE1":"1 45578U 20025AZ  23010.68066627 -.00000043  00000-0  16001-4 0  9995","ARG_OF_PERICENTER":"70.5269","TIME_SYSTEM":"UTC","OBJECT_TYPE":"PAYLOAD","ELEMENT_SET_NO":"999","FILE":"3739267","PERIAPSIS":"546.256","PERIOD":"95.592","GP_ID":"222717117"},{"PERIAPSIS":"546.455","FILE":"3739267","GP_ID":"222717867","PERIOD":"95.592","TIME_SYSTEM":"UTC","ELEMENT_SET_NO":"999","OBJECT_TYPE":"PAYLOAD","COUNTRY_CODE":"US","CLASSIFICATION_TYPE":"U","LAUNCH_DATE":"2020-04-22","TLE_LINE1":"1 45579U 20025BA  23010.75440655 -.00000904  00000-0 -41834-4 0  9990","ARG_OF_PERICENTER":"94.9555","OBJECT_ID":"2020-025BA","SEMIMAJOR_AXIS":"6925.363","OBJECT_NAME":"STARLINK-1332","APOAPSIS":"548.001","NORAD_CAT_ID":"45579","MEAN_ELEMENT_THEORY":"SGP4","REV_AT_EPOCH":"15214","MEAN_MOTION":"15.06395206","EPHEMERIS_TYPE":"0","MEAN_MOTION_DOT":"-0.00000904","SITE":"AFETR","MEAN_ANOMALY":"265.1561","EPOCH":"2023-01-10T18:06:20.725920","RCS_SIZE":"LARGE","TLE_LINE2":"2 45579  53.0547 176.9964 0001116  94.9555 265.1561 15.06395206152140","REF_FRAME":"TEME","DECAY_DATE":null,"BSTAR":"-0.00004183400000","INCLINATION":"53.0547","ECCENTRICITY":"0.00011160","RA_OF_ASC_NODE":"176.9964","CENTER_NAME":"EARTH","MEAN_MOTION_DDOT":"0.0000000000000"},{"DECAY_DATE":null,"BSTAR":"-0.00000998120000","ECCENTRICITY":"0.00016700","INCLINATION":"53.0527","RA_OF_ASC_NODE":"227.1334","MEAN_MOTION_DDOT":"0.0000000000000","CENTER_NAME":"EARTH","NORAD_CAT_ID":"45580","MEAN_ELEMENT_THEORY":"SGP4","REV_AT_EPOCH":"15143","MEAN_MOTION":"15.06402536","SITE":"AFETR","EPHEMERIS_TYPE":"0","MEAN_MOTION_DOT":"-0.00000430","EPOCH":"2023-01-10T16:29:27.021120","RCS_SIZE":"LARGE","MEAN_ANOMALY":"276.6372","TLE_LINE2":"2 45580  53.0527 227.1334 0001670  83.4807 276.6372 15.06402536151431","REF_FRAME":"TEME","LAUNCH_DATE":"2020-04-22","CLASSIFICATION_TYPE":"U","COUNTRY_CODE":"US","ARG_OF_PERICENTER":"83.4807","TLE_LINE1":"1 45580U 20025BB  23010.68711830 -.00000430  00000-0 -99812-5 0  9994","APOAPSIS":"548.362","OBJECT_NAME":"STARLINK-1333","SEMIMAJOR_AXIS":"6925.341","OBJECT_ID":"2020-025BB","FILE":"3739267","PERIAPSIS":"546.049","GP_ID":"222718117","PERIOD":"95.592","TIME_SYSTEM":"UTC","OBJECT_TYPE":"PAYLOAD","ELEMENT_SET_NO":"999"},{"OBJECT_NAME":"STARLINK-1335","APOAPSIS":"548.128","SEMIMAJOR_AXIS":"6925.361","OBJECT_ID":"2020-025BC","LAUNCH_DATE":"2020-04-22","COUNTRY_CODE":"US","CLASSIFICATION_TYPE":"U","ARG_OF_PERICENTER":"108.0108","TLE_LINE1":"1 45581U 20025BC  23010.82443014  .00001516  00000-0  12067-3 0  9996","TIME_SYSTEM":"UTC","OBJECT_TYPE":"PAYLOAD","ELEMENT_SET_NO":"999","FILE":"3739267","PERIAPSIS":"546.324","GP_ID":"222718362","PERIOD":"95.592","ECCENTRICITY":"0.00013020","INCLINATION":"53.0525","RA_OF_ASC_NODE":"216.5233","MEAN_MOTION_DDOT":"0.0000000000000","CENTER_NAME":"EARTH","DECAY_DATE":null,"BSTAR":"0.00012067000000","RCS_SIZE":"LARGE","EPOCH":"2023-01-10T19:47:10.764096","MEAN_ANOMALY":"252.1023","TLE_LINE2":"2 45581  53.0525 216.5233 0001302 108.0108 252.1023 15.06395946151595","REF_FRAME":"TEME","NORAD_CAT_ID":"45581","MEAN_ELEMENT_THEORY":"SGP4","REV_AT_EPOCH":"15159","MEAN_MOTION":"15.06395946","SITE":"AFETR","MEAN_MOTION_DOT":"0.00001516","EPHEMERIS_TYPE":"0"},{"ELEMENT_SET_NO":"999","OBJECT_TYPE":"PAYLOAD","TIME_SYSTEM":"UTC","GP_ID":"222717617","PERIOD":"95.592","FILE":"3739267","PERIAPSIS":"546.059","OBJECT_ID":"2020-025BD","SEMIMAJOR_AXIS":"6925.329","OBJECT_NAME":"STARLINK-1337","APOAPSIS":"548.329","TLE_LINE1":"1 45582U 20025BD  23010.71383745 -.00001148  00000-0 -58189-4 0  9998","ARG_OF_PERICENTER":"93.5275","COUNTRY_CODE":"US","CLASSIFICATION_TYPE":"U","LAUNCH_DATE":"2020-04-22","MEAN_ANOMALY":"266.5901","EPOCH":"2023-01-10T17:07:55.555680","RCS_SIZE":"LARGE","TLE_LINE2":"2 45582  53.0507 217.0227 0001639  93.5275 266.5901 15.06406314151575","REF_FRAME":"TEME","MEAN_MOTION":"15.06406314","MEAN_MOTION_DOT":"-0.00001148","EPHEMERIS_TYPE":"0","SITE":"AFETR","NORAD_CAT_ID":"45582","MEAN_ELEMENT_THEORY":"SGP4","REV_AT_EPOCH":"15157","CENTER_NAME":"EARTH","MEAN_MOTION_DDOT":"0.0000000000000","INCLINATION":"53.0507","ECCENTRICITY":"0.00016390","RA_OF_ASC_NODE":"217.0227","DECAY_DATE":null,"BSTAR":"-0.00005818900000"}];
